{"type": "FeatureCollection", "features": [ {"type": "Feature", "properties": {"norad_id": 40664, "name": "SKY MEXICO-1", "group": "intelsat", "lat": -0.03663318506910511, "lon": -128.2899206482178, "alt_km": 35780.23195341771, "timestamp": "2025-12-18T14:52:07.698133+00:00", "meta": {"OBJECT_NAME": "SKY MEXICO-1", "OBJECT_ID": "2015-026B", "EPOCH": "2025-12-18T06:12:25.516224", "MEAN_MOTION": 1.00270949, "ECCENTRICITY": 0.00023996, "INCLINATION": 0.0149, "RA_OF_ASC_NODE": 312.4559, "ARG_OF_PERICENTER": 332.3855, "MEAN_ANOMALY": 176.622, "EPHEMERIS_TYPE": 0, "CLASSIFICATION_TYPE": "U", "NORAD_CAT_ID": 40664, "ELEMENT_SET_NO": 999, "REV_AT_EPOCH": 3864, "BSTAR": 0, "MEAN_MOTION_DOT": -2.09e-06, "MEAN_MOTION_DDOT": 0}, "tle": {"line1": "1 40664U 15026B   25352.25862866 -.00000209  00000+0  00000+0 0  9994", "line2": "2 40664   0.0149 312.4559 0002399 332.3855 176.6220  1.00270949 38644"}}, "geometry": {"type": "Point", "coordinates": [-128.2899206482178, -0.03663318506910511]}}, {"type": "Feature", "properties": {"norad_id": 40874, "name": "INTELSAT 34 (IS-34)", "group": "intelsat", "lat": -0.03998312949847585, "lon": -105.00212183487741, "alt_km": 35787.686544108175, "timestamp": "2025-12-18T14:52:07.698145+00:00", "meta": {"OBJECT_NAME": "INTELSAT 34 (IS-34)", "OBJECT_ID": "2015-039A", "EPOCH": "2025-12-18T02:52:57.972288", "MEAN_MOTION": 1.00270058, "ECCENTRICITY": 6.213e-05, "INCLINATION": 0.0144, "RA_OF_ASC_NODE": 332.331, "ARG_OF_PERICENTER": 169.0466, "MEAN_ANOMALY": 293.3459, "EPHEMERIS_TYPE": 0, "CLASSIFICATION_TYPE": "U", "NORAD_CAT_ID": 40874, "ELEMENT_SET_NO": 999, "REV_AT_EPOCH": 3780, "BSTAR": 0, "MEAN_MOTION_DOT": -2.6e-06, "MEAN_MOTION_DDOT": 0}, "tle": {"line1": "1 40874U 15039A   25352.12011542 -.00000260  00000+0  00000+0 0  9991", "line2": "2 40874   0.0144 332.3310 0000621 169.0466 293.3459  1.00270058 37806"}}, "geometry": {"type": "Point", "coordinates": [-105.00212183487741, -0.03998312949847585]}}, {"type": "Feature", "properties": {"norad_id": 41581, "name": "INTELSAT 31 (IS-31)", "group": "intelsat", "lat": -0.026700481218793228, "lon": -144.54361347712938, "alt_km": 35778.3105211845, "timestamp": "2025-12-18T14:52:07.698157+00:00", "meta": {"OBJECT_NAME": "INTELSAT 31 (IS-31)", "OBJECT_ID": "2016-035A", "EPOCH": "2025-12-17T14:35:00.320640", "MEAN_MOTION": 1.00272697, "ECCENTRICITY": 0.00018355, "INCLINATION": 0.0215, "RA_OF_ASC_NODE": 273.4234, "ARG_OF_PERICENTER": 290.0377, "MEAN_ANOMALY": 6.7212, "EPHEMERIS_TYPE": 0, "CLASSIFICATION_TYPE": "U", "NORAD_CAT_ID": 41581, "ELEMENT_SET_NO": 999, "REV_AT_EPOCH": 3486, "BSTAR": 0, "MEAN_MOTION_DOT": -1.26e-06, "MEAN_MOTION_DDOT": 0}, "tle": {"line1": "1 41581U 16035A   25351.60764260 -.00000126  00000+0  00000+0 0  9999", "line2": "2 41581   0.0215 273.4234 0001835 290.0377   6.7212  1.00272697 34862"}}, "geometry": {"type": "Point", "coordinates": [-144.54361347712938, -0.026700481218793228]}}, {"type": "Feature", "properties": {"norad_id": 41747, "name": "INTELSAT 36 (IS-36)", "group": "intelsat", "lat": 0.012016977438270245, "lon": 18.99136631477789, "alt_km": 35782.604084390805, "timestamp": "2025-12-18T14:52:07.698168+00:00", "meta": {"OBJECT_NAME": "INTELSAT 36 (IS-36)", "OBJECT_ID": "2016-053A", "EPOCH": "2025-12-18T01:38:09.819744", "MEAN_MOTION": 1.00271251, "ECCENTRICITY": 0.00012427, "INCLINATION": 0.013, "RA_OF_ASC_NODE": 10.5767, "ARG_OF_PERICENTER": 322.3772, "MEAN_ANOMALY": 207.0051, "EPHEMERIS_TYPE": 0, "CLASSIFICATION_TYPE": "U", "NORAD_CAT_ID": 41747, "ELEMENT_SET_NO": 999, "REV_AT_EPOCH": 3413, "BSTAR": 0, "MEAN_MOTION_DOT": 1e-08, "MEAN_MOTION_DDOT": 0}, "tle": {"line1": "1 41747U 16053A   25352.06816921  .00000001  00000+0  00000+0 0  9997", "line2": "2 41747   0.0130  10.5767 0001242 322.3772 207.0051  1.00271251 34135"}}, "geometry": {"type": "Point", "coordinates": [18.99136631477789, 0.012016977438270245]}}, {"type": "Feature", "properties": {"norad_id": 41945, "name": "INTELSAT 32E (IS-32E)", "group": "intelsat", "lat": -0.026731123542050966, "lon": -92.68343160836741, "alt_km": 35788.109309153704, "timestamp": "2025-12-18T14:52:07.698180+00:00", "meta": {"OBJECT_NAME": "INTELSAT 32E (IS-32E)", "OBJECT_ID": "2017-007B", "EPOCH": "2025-12-18T02:49:03.489600", "MEAN_MOTION": 1.00270284, "ECCENTRICITY": 6.537e-05, "INCLINATION": 0.0299, "RA_OF_ASC_NODE": 71.5973, "ARG_OF_PERICENTER": 319.6941, "MEAN_ANOMALY": 54.7832, "EPHEMERIS_TYPE": 0, "CLASSIFICATION_TYPE": "U", "NORAD_CAT_ID": 41945, "ELEMENT_SET_NO": 999, "REV_AT_EPOCH": 3241, "BSTAR": 0, "MEAN_MOTION_DOT": -2.44e-06, "MEAN_MOTION_DDOT": 0}, "tle": {"line1": "1 41945U 17007B   25352.11740150 -.00000244  00000+0  00000+0 0  9993", "line2": "2 41945   0.0299  71.5973 0000653 319.6941  54.7832  1.00270284 32417"}}, "geometry": {"type": "Point", "coordinates": [-92.68343160836741, -0.026731123542050966]}}, {"type": "Feature", "properties": {"norad_id": 42818, "name": "INTELSAT 35E (IS-35E)", "group": "intelsat", "lat": -0.050996498583919664, "lon": -83.99742490787972, "alt_km": 35778.86812050481, "timestamp": "2025-12-18T14:52:07.698191+00:00", "meta": {"OBJECT_NAME": "INTELSAT 35E (IS-35E)", "OBJECT_ID": "2017-041A", "EPOCH": "2025-12-18T02:51:33.251040", "MEAN_MOTION": 1.00269881, "ECCENTRICITY": 0.00018497, "INCLINATION": 0.0261, "RA_OF_ASC_NODE": 12.1091, "ARG_OF_PERICENTER": 258.3701, "MEAN_ANOMALY": 184.8996, "EPHEMERIS_TYPE": 0, "CLASSIFICATION_TYPE": "U", "NORAD_CAT_ID": 42818, "ELEMENT_SET_NO": 999, "REV_AT_EPOCH": 3100, "BSTAR": 0, "MEAN_MOTION_DOT": 0, "MEAN_MOTION_DDOT": 0}, "tle": {"line1": "1 42818U 17041A   25352.11913485  .00000000  00000+0  00000+0 0  9993", "line2": "2 42818   0.0261  12.1091 0001849 258.3701 184.8996  1.00269881 31000"}}, "geometry": {"type": "Point", "coordinates": [-83.99742490787972, -0.050996498583919664]}}, {"type": "Feature", "properties": {"norad_id": 42950, "name": "INTELSAT 37E (IS-37E)", "group": "intelsat", "lat": -0.03263909781634311, "lon": -67.48194792193627, "alt_km": 35776.04155882351, "timestamp": "2025-12-18T14:52:07.698203+00:00", "meta": {"OBJECT_NAME": "INTELSAT 37E (IS-37E)", "OBJECT_ID": "2017-059A", "EPOCH": "2025-12-18T03:59:38.559264", "MEAN_MOTION": 1.00271207, "ECCENTRICITY": 0.00029646, "INCLINATION": 0.0175, "RA_OF_ASC_NODE": 336.6396, "ARG_OF_PERICENTER": 280.2531, "MEAN_ANOMALY": 232.0501, "EPHEMERIS_TYPE": 0, "CLASSIFICATION_TYPE": "U", "NORAD_CAT_ID": 42950, "ELEMENT_SET_NO": 999, "REV_AT_EPOCH": 3025, "BSTAR": 0, "MEAN_MOTION_DOT": -1.16e-06, "MEAN_MOTION_DDOT": 0}, "tle": {"line1": "1 42950U 17059A   25352.16641851 -.00000116  00000+0  00000+0 0  9998", "line2": "2 42950   0.0175 336.6396 0002964 280.2531 232.0501  1.00271207 30256"}}, "geometry": {"type": "Point", "coordinates": [-67.48194792193627, -0.03263909781634311]}}, {"type": "Feature", "properties": {"norad_id": 43632, "name": "AZERSPACE 2 (IS-38)", "group": "intelsat", "lat": -0.00036512172245884984, "lon": -4.375248261151731, "alt_km": 35785.390355328556, "timestamp": "2025-12-18T14:52:07.698214+00:00", "meta": {"OBJECT_NAME": "AZERSPACE 2 (IS-38)", "OBJECT_ID": "2018-074A", "EPOCH": "2025-12-18T04:25:38.603712", "MEAN_MOTION": 1.00271735, "ECCENTRICITY": 0.00011538, "INCLINATION": 0.0184, "RA_OF_ASC_NODE": 1.7635, "ARG_OF_PERICENTER": 271.6405, "MEAN_ANOMALY": 285.169, "EPHEMERIS_TYPE": 0, "CLASSIFICATION_TYPE": "U", "NORAD_CAT_ID": 43632, "ELEMENT_SET_NO": 999, "REV_AT_EPOCH": 2663, "BSTAR": 0, "MEAN_MOTION_DOT": 1.61e-06, "MEAN_MOTION_DDOT": 0}, "tle": {"line1": "1 43632U 18074A   25352.18447458  .00000161  00000+0  00000+0 0  9992", "line2": "2 43632   0.0184   1.7635 0001153 271.6405 285.1690  1.00271735 26634"}}, "geometry": {"type": "Point", "coordinates": [-4.375248261151731, -0.00036512172245884984]}}, {"type": "Feature", "properties": {"norad_id": 43633, "name": "HORIZONS-3E", "group": "intelsat", "lat": -0.01279645503489496, "lon": 119.48300184014309, "alt_km": 35789.06867403863, "timestamp": "2025-12-18T14:52:07.698226+00:00", "meta": {"OBJECT_NAME": "HORIZONS-3E", "OBJECT_ID": "2018-074B", "EPOCH": "2025-12-17T20:58:44.087232", "MEAN_MOTION": 1.00271852, "ECCENTRICITY": 7.224e-05, "INCLINATION": 0.0529, "RA_OF_ASC_NODE": 183.9113, "ARG_OF_PERICENTER": 108.1124, "MEAN_ANOMALY": 278.3884, "EPHEMERIS_TYPE": 0, "CLASSIFICATION_TYPE": "U", "NORAD_CAT_ID": 43633, "ELEMENT_SET_NO": 999, "REV_AT_EPOCH": 2652, "BSTAR": 0, "MEAN_MOTION_DOT": -5e-08, "MEAN_MOTION_DDOT": 0}, "tle": {"line1": "1 43633U 18074B   25351.87412138 -.00000005  00000+0  00000+0 0  9993", "line2": "2 43633   0.0529 183.9113 0000722 108.1124 278.3884  1.00271852 26522"}}, "geometry": {"type": "Point", "coordinates": [119.48300184014309, -0.01279645503489496]}}, {"type": "Feature", "properties": {"norad_id": 44333, "name": "AT&T T-16", "group": "intelsat", "lat": 0.0005409697639752255, "lon": -150.3642330204103, "alt_km": 35786.07691448741, "timestamp": "2025-12-18T14:52:07.698237+00:00", "meta": {"OBJECT_NAME": "AT&T T-16", "OBJECT_ID": "2019-034A", "EPOCH": "2025-12-17T23:07:09.285888", "MEAN_MOTION": 1.00269567, "ECCENTRICITY": 7.786e-05, "INCLINATION": 0.0259, "RA_OF_ASC_NODE": 66.0792, "ARG_OF_PERICENTER": 65.0854, "MEAN_ANOMALY": 201.5889, "EPHEMERIS_TYPE": 0, "CLASSIFICATION_TYPE": "U", "NORAD_CAT_ID": 44333, "ELEMENT_SET_NO": 999, "REV_AT_EPOCH": 2381, "BSTAR": 0, "MEAN_MOTION_DOT": -9e-07, "MEAN_MOTION_DDOT": 0}, "tle": {"line1": "1 44333U 19034A   25351.96330192 -.00000090  00000+0  00000+0 0  9991", "line2": "2 44333   0.0259  66.0792 0000778  65.0854 201.5889  1.00269567 23818"}}, "geometry": {"type": "Point", "coordinates": [-150.3642330204103, 0.0005409697639752255]}}]}